STARLINK-32754          
1 62527U 25004S   26068.46297704  .00030763  00000+0  11224-2 0  9994
2 62527  42.9981 221.1752 0001779 292.6160  67.4503 15.27589937 65470
TEVEL2-8                
1 63239U 25052AF  26068.66815442  .00019130  00000+0  69304-3 0  9993
2 63239  97.4055 324.2923 0008031 124.9191 235.2804 15.28392908 54807
